OBJECT_NAME,OBJECT_ID,EPOCH,MEAN_MOTION,ECCENTRICITY,INCLINATION,RA_OF_ASC_NODE,ARG_OF_PERICENTER,MEAN_ANOMALY,EPHEMERIS_TYPE,CLASSIFICATION_TYPE,NORAD_CAT_ID,ELEMENT_SET_NO,REV_AT_EPOCH,BSTAR,MEAN_MOTION_DOT,MEAN_MOTION_DDOT
ONEWEB-0395,2021-132G,2026-07-17T23:46:56.229312,13.11419525,.00019928,87.8886,14.9324,84.4618,275.6737,0,U,50475,999,21975,-.71386021E-3,-.24E-5,0
ONEWEB-0396,2021-132H,2026-07-17T21:32:00.748032,13.18686662,.0001728,87.9199,329.3491,97.3271,262.8058,0,U,50476,999,22568,-.92399727E-4,-.24E-6,0
ONEWEB-0397,2021-132J,2026-07-17T21:53:51.443808,13.18686928,.00016517,87.9202,329.3458,101.5135,258.6183,0,U,50477,999,22566,.19146656E-3,.88E-6,0
ONEWEB-0398,2021-132K,2026-07-18T00:50:26.109024,13.11415110,.00021651,87.8892,14.9165,89.5893,270.5483,0,U,50478,999,21965,.27911201E-4,.23E-6,0
ONEWEB-0399,2021-132L,2026-07-18T06:00:31.121280,13.11415748,.00015015,87.8894,14.8851,79.6787,280.4510,0,U,50479,999,21967,.1204749E-2,.44E-5,0
ONEWEB-0400,2021-132M,2026-07-17T19:33:01.880640,13.18684672,.00020512,87.9201,329.3554,96.3030,263.8336,0,U,50480,999,22564,.10411483E-3,.54E-6,0
ONEWEB-0401,2021-132N,2026-07-18T07:34:10.176384,13.18686905,.00018045,87.9203,329.2535,105.3650,254.7682,0,U,50481,999,22571,.20461472E-3,.94E-6,0
ONEWEB-0402,2021-132P,2026-07-17T21:34:25.402368,13.18687546,.000164,87.9201,329.3247,113.6905,246.4400,0,U,50482,999,22568,-.10852284E-3,-.3E-6,0
ONEWEB-0403,2021-132Q,2026-07-18T07:17:10.360896,13.18686915,.00018254,87.9201,329.2688,94.0617,266.0724,0,U,50483,999,22569,.14595086E-3,.7E-6,0
ONEWEB-0404,2021-132R,2026-07-18T05:33:38.772864,13.11417843,.0001771,87.8890,14.8855,81.1367,278.9961,0,U,50484,999,21976,.36568624E-3,.142E-5,0
ONEWEB-0405,2021-132S,2026-07-17T20:41:01.457088,13.18684617,.00023608,87.9202,329.3420,95.7311,264.4090,0,U,50485,999,22603,.46658381E-4,.31E-6,0
ONEWEB-0406,2021-132T,2026-07-18T07:24:26.865792,13.18687106,.00016726,87.9197,329.2678,82.2760,277.8562,0,U,50486,999,22572,.11196758E-3,.57E-6,0
ONEWEB-0407,2021-132U,2026-07-18T07:14:43.283040,13.18685740,.00020094,87.9201,329.2627,104.0682,256.0674,0,U,50487,999,22566,-.33521973E-3,-.119E-5,0
ONEWEB-0409,2021-132V,2026-07-18T05:31:12.454464,13.11418383,.00018794,87.8893,14.8754,82.2869,277.8472,0,U,50488,999,21965,.21694636E-3,.9E-6,0
ONEWEB-0412,2021-132W,2026-07-18T06:57:44.507808,13.18687103,.00017097,87.9199,329.2725,107.1807,252.9513,0,U,50489,999,22575,.11907357E-3,.6E-6,0
ONEWEB-0413,2021-132X,2026-07-18T07:05:01.061952,13.18688371,.00018783,87.9192,329.2675,109.0326,251.1010,0,U,50490,999,22569,.7986568E-4,.44E-6,0
ONEWEB-0414,2021-132Y,2026-07-18T03:04:38.827488,13.18687106,.0001727,87.9200,329.2859,101.2262,258.9065,0,U,50491,999,22570,-.63677279E-4,-.12E-6,0
ONEWEB-0417,2021-132Z,2026-07-17T21:48:59.797152,13.18687215,.0001855,87.9193,329.3463,92.9478,267.1866,0,U,50492,999,22565,-.81878002E-4,-.19E-6,0
ONEWEB-0418,2021-132AA,2026-07-17T22:03:22.317984,13.18686108,.00018513,87.9197,329.3457,90.9024,269.2320,0,U,50493,999,22571,.11208926E-4,.17E-6,0
ONEWEB-0419,2021-132AB,2026-07-18T07:37:08.878368,13.18666177,.00020854,87.9200,329.2675,92.6425,267.4946,0,U,50494,999,22568,.53610549E-4,.34E-6,0
ONEWEB-0420,2021-132AC,2026-07-18T01:17:48.103008,13.18684938,.00020314,87.9193,329.3198,102.9733,257.1626,0,U,50495,999,22564,-.4500481E-5,.11E-6,0
ONEWEB-0421,2021-132AD,2026-07-18T02:57:23.010336,13.18685870,.00015786,87.9194,329.3042,105.3865,254.7442,0,U,50496,999,22569,-.20707882E-3,-.69E-6,0
ONEWEB-0424,2021-132AE,2026-07-18T07:29:18.651552,13.18686973,.00021817,87.9198,329.2670,92.7278,267.4104,0,U,50497,999,22574,.19016879E-3,.88E-6,0
ONEWEB-0426,2021-132AF,2026-07-18T02:51:18.287424,13.18685098,.00013051,87.9202,329.2957,87.3035,272.8246,0,U,50498,999,22566,-.31838607E-3,-.113E-5,0
ONEWEB-0427,2021-132AG,2026-07-18T01:59:05.924544,13.18686856,.00018093,87.9201,329.2924,92.2522,267.8817,0,U,50499,999,22568,-.26428917E-4,.2E-7,0
ONEWEB-0429,2021-132AH,2026-07-17T22:01:07.673952,13.18687777,.00019563,87.9194,329.3472,102.1893,257.9458,0,U,50500,999,22563,.89930267E-4,.48E-6,0
ONEWEB-0430,2021-132AJ,2026-07-18T01:22:38.921952,13.18689157,.00021152,87.9192,329.3181,103.7243,256.4125,0,U,50501,999,22569,.87616906E-4,.47E-6,0
ONEWEB-0432,2021-132AK,2026-07-18T02:47:27.985632,13.18685549,.00023524,87.9200,329.2931,96.7799,263.3600,0,U,50502,999,22565,-.17635897E-3,-.57E-6,0
ONEWEB-0440,2021-132AL,2026-07-17T22:13:16.578048,13.18687406,.00017524,87.9201,329.3425,107.7396,252.3928,0,U,50503,999,22562,.37690815E-4,.28E-6,0
ONEWEB-0450,2021-132AM,2026-07-17T22:03:46.091808,13.18687070,.00020426,87.9191,329.3459,102.9904,257.1456,0,U,50504,999,22565,.34404889E-4,.26E-6,0
