ONEWEB-0395             
1 50475U 21132G   26198.99092858 -.00000240  00000+0 -71386-3 0  9991
2 50475  87.8886  14.9324 0001992  84.4618 275.6737 13.11419525219756
ONEWEB-0396             
1 50476U 21132H   26198.89723088 -.00000024  00000+0 -92400-4 0  9998
2 50476  87.9199 329.3491 0001728  97.3271 262.8058 13.18686662225686
ONEWEB-0397             
1 50477U 21132J   26198.91240097  .00000088  00000+0  19147-3 0  9990
2 50477  87.9202 329.3458 0001651 101.5135 258.6183 13.18686928225662
ONEWEB-0398             
1 50478U 21132K   26199.03502441  .00000023  00000+0  27911-4 0  9997
2 50478  87.8892  14.9165 0002165  89.5893 270.5483 13.11415110219650
ONEWEB-0399             
1 50479U 21132L   26199.25036020  .00000440  00000+0  12047-2 0  9992
2 50479  87.8894  14.8851 0001501  79.6787 280.4510 13.11415748219679
ONEWEB-0400             
1 50480U 21132M   26198.81460510  .00000054  00000+0  10411-3 0  9995
2 50480  87.9201 329.3554 0002051  96.3030 263.8336 13.18684672225642
ONEWEB-0401             
1 50481U 21132N   26199.31539556  .00000094  00000+0  20461-3 0  9999
2 50481  87.9203 329.2535 0001804 105.3650 254.7682 13.18686905225719
ONEWEB-0402             
1 50482U 21132P   26198.89890512 -.00000030  00000+0 -10852-3 0  9999
2 50482  87.9201 329.3247 0001640 113.6905 246.4400 13.18687546225686
ONEWEB-0403             
1 50483U 21132Q   26199.30359214  .00000070  00000+0  14595-3 0  9996
2 50483  87.9201 329.2688 0001825  94.0617 266.0724 13.18686915225699
ONEWEB-0404             
1 50484U 21132R   26199.23169876  .00000142  00000+0  36569-3 0  9997
2 50484  87.8890  14.8855 0001771  81.1367 278.9961 13.11417843219766
ONEWEB-0405             
1 50485U 21132S   26198.86182242  .00000031  00000+0  46658-4 0  9996
2 50485  87.9202 329.3420 0002360  95.7311 264.4090 13.18684617226035
ONEWEB-0406             
1 50486U 21132T   26199.30864428  .00000057  00000+0  11197-3 0  9997
2 50486  87.9197 329.2678 0001672  82.2760 277.8562 13.18687106225720
ONEWEB-0407             
1 50487U 21132U   26199.30188985 -.00000119  00000+0 -33522-3 0  9992
2 50487  87.9201 329.2627 0002009 104.0682 256.0674 13.18685740225660
ONEWEB-0409             
1 50488U 21132V   26199.23000526  .00000090  00000+0  21695-3 0  9993
2 50488  87.8893  14.8754 0001879  82.2869 277.8472 13.11418383219652
ONEWEB-0412             
1 50489U 21132W   26199.29009847  .00000060  00000+0  11907-3 0  9997
2 50489  87.9199 329.2725 0001709 107.1807 252.9513 13.18687103225758
ONEWEB-0413             
1 50490U 21132X   26199.29515118  .00000044  00000+0  79866-4 0  9993
2 50490  87.9192 329.2675 0001878 109.0326 251.1010 13.18688371225695
ONEWEB-0414             
1 50491U 21132Y   26199.12822717 -.00000012  00000+0 -63677-4 0  9992
2 50491  87.9200 329.2859 0001727 101.2262 258.9065 13.18687106225708
ONEWEB-0417             
1 50492U 21132Z   26198.90902543 -.00000019  00000+0 -81878-4 0  9994
2 50492  87.9193 329.3463 0001855  92.9478 267.1866 13.18687215225655
ONEWEB-0418             
1 50493U 21132AA  26198.91900831  .00000017  00000+0  11209-4 0  9991
2 50493  87.9197 329.3457 0001851  90.9024 269.2320 13.18686108225719
ONEWEB-0419             
1 50494U 21132AB  26199.31746387  .00000034  00000+0  53611-4 0  9993
2 50494  87.9200 329.2675 0002085  92.6425 267.4946 13.18666177225684
ONEWEB-0420             
1 50495U 21132AC  26199.05402897  .00000011  00000+0 -45005-5 0  9995
2 50495  87.9193 329.3198 0002031 102.9733 257.1626 13.18684938225647
ONEWEB-0421             
1 50496U 21132AD  26199.12318299 -.00000069  00000+0 -20708-3 0  9991
2 50496  87.9194 329.3042 0001578 105.3865 254.7442 13.18685870225695
ONEWEB-0424             
1 50497U 21132AE  26199.31202143  .00000088  00000+0  19017-3 0  9993
2 50497  87.9198 329.2670 0002181  92.7278 267.4104 13.18686973225741
ONEWEB-0426             
1 50498U 21132AF  26199.11896166 -.00000113  00000+0 -31839-3 0  9993
2 50498  87.9202 329.2957 0001305  87.3035 272.8246 13.18685098225669
ONEWEB-0427             
1 50499U 21132AG  26199.08270746  .00000002  00000+0 -26429-4 0  9996
2 50499  87.9201 329.2924 0001809  92.2522 267.8817 13.18686856225681
ONEWEB-0429             
1 50500U 21132AH  26198.91744993  .00000048  00000+0  89930-4 0  9995
2 50500  87.9194 329.3472 0001956 102.1893 257.9458 13.18687777225638
ONEWEB-0430             
1 50501U 21132AJ  26199.05739493  .00000047  00000+0  87617-4 0  9990
2 50501  87.9192 329.3181 0002115 103.7243 256.4125 13.18689157225693
ONEWEB-0432             
1 50502U 21132AK  26199.11629613 -.00000057  00000+0 -17636-3 0  9996
2 50502  87.9200 329.2931 0002352  96.7799 263.3600 13.18685549225658
ONEWEB-0440             
1 50503U 21132AL  26198.92588632  .00000028  00000+0  37691-4 0  9990
2 50503  87.9201 329.3425 0001752 107.7396 252.3928 13.18687406225620
ONEWEB-0450             
1 50504U 21132AM  26198.91928347  .00000026  00000+0  34405-4 0  9999
2 50504  87.9191 329.3459 0002042 102.9904 257.1456 13.18687070225650
